[{"OBJECT_NAME":"EOS-6 (OCEANSAT-3)","OBJECT_ID":"2022-158A","EPOCH":"2026-03-09T22:24:42.764256","MEAN_MOTION":14.47005704,"ECCENTRICITY":1.733e-5,"INCLINATION":98.3487,"RA_OF_ASC_NODE":168.4787,"ARG_OF_PERICENTER":158.292,"MEAN_ANOMALY":201.828,"EPHEMERIS_TYPE":0,"CLASSIFICATION_TYPE":"U","NORAD_CAT_ID":54361,"ELEMENT_SET_NO":999,"REV_AT_EPOCH":17348,"BSTAR":0.00014313559,"MEAN_MOTION_DOT":4.77e-6,"MEAN_MOTION_DDOT":0},{"OBJECT_NAME":"ARIANE 1 DEB","OBJECT_ID":"1986-019VN","EPOCH":"2026-03-09T21:17:38.336928","MEAN_MOTION":14.54855359,"ECCENTRICITY":0.00364166,"INCLINATION":98.2533,"RA_OF_ASC_NODE":48.7738,"ARG_OF_PERICENTER":265.1509,"MEAN_ANOMALY":153.4007,"EPHEMERIS_TYPE":0,"CLASSIFICATION_TYPE":"U","NORAD_CAT_ID":27596,"ELEMENT_SET_NO":999,"REV_AT_EPOCH":59971,"BSTAR":0.00079843543,"MEAN_MOTION_DOT":3.412e-5,"MEAN_MOTION_DDOT":0}]
